#aV2009 10 18  0  0   .00000000      96 DD+AD WGS84 FIT  NGA
## 1554       .00000000   900.00000000 55122  .0000000000000
+   32     1  2  3  4  5  6  7  8  9 10 11 12 13 14 15 16 17
+         18 19 20 21 22 23 24 25 26 27 28 29 30 31 32  0  0
+          0  0  0  0  0  0  0  0  0  0  0  0  0  0  0  0  0
+          0  0  0  0  0  0  0  0  0  0  0  0  0  0  0  0  0
+          0  0  0  0  0  0  0  0  0  0  0  0  0  0  0  0  0
++         0  0  0  0  0  0  0  0  0  0  0  0  0  0  0  0  0
++         0  0  0  0  0  0  0  0  0  0  0  0  0  0  0  0  0
++         0  0  0  0  0  0  0  0  0  0  0  0  0  0  0  0  0
++         0  0  0  0  0  0  0  0  0  0  0  0  0  0  0  0  0
++         0  0  0  0  0  0  0  0  0  0  0  0  0  0  0  0  0
%c cc cc ccc ccc cccc cccc cccc cccc ccccc ccccc ccccc ccccc
%c cc cc ccc ccc cccc cccc cccc cccc ccccc ccccc ccccc ccccc
%f  0.0000000  0.000000000  0.00000000000  0.000000000000000
%f  0.0000000  0.000000000  0.00000000000  0.000000000000000
%i    0    0    0    0      0      0      0      0         0
%i    0    0    0    0      0      0      0      0         0
/*      NGA, ST. LOUIS,MO.                                  
/*   EPHEMERIS COMPUTED FROM  3 DAYS OF DATA                
/* CCCCCCCCCCCCCCCCCCCCCCCCCCCCCCCCCCCCCCCCCCCCCCCCCCCCCCCCC
/* CCCCCCCCCCCCCCCCCCCCCCCCCCCCCCCCCCCCCCCCCCCCCCCCCCCCCCCCC
*  2009 10 18 10 15   .00000000                                                 
P  1  15095.476932   1406.066068  21707.591454    -60.826680                    
V  1  -1037.220121  27784.081619   -973.706698      -.014583                    
P  2   5395.910954  18791.363016  18094.290325    182.168742                    
V  2 -20469.270340 -10671.661705  16695.366368       .037315                    
P  3   -805.493232 -17680.031716 -20053.069800    462.260313                    
V  3  21451.570472 -12820.675782  10978.096147       .052394                    
P  4  -6920.225897  14023.291613  21298.235021   -316.524216                    
V  4 -23382.100538 -14484.362856   2292.854438      -.177520                    
P  5   3296.732862  25594.763573  -6126.397391    -62.811603                    
V  5  -3059.457740   7670.228622  30520.993571       .085517                    
P  6   4251.821778 -18347.944544 -18512.537108    254.082604                    
V  6  21678.357669 -10479.011029  15309.940039       .039869                    
P  7 -23067.825234  -4485.373045 -12541.026133      9.389406                    
V  7 -12291.146650 -10164.541821  26125.338933      -.007005                    
P  8 -16153.412426   4975.014151 -20661.735897     -1.253547                    
V  8 -20696.883239 -15635.393509  11928.589766      -.202050                    
P  9  20643.689811  16163.205519  -5063.472696     83.643069                    
V  9  -5857.840160  -1045.212179 -31260.423792       .020739                    
P 10    916.727044  26115.914444  -3718.048801    -26.176534                    
V 10  -3498.989079   4353.767875  31401.001633      -.008987                    
P 11 -23889.321015 -11590.421223  -3518.600626    -24.832990                    
V 11   5518.896478  -2925.164972 -29437.973511      -.018240                    
P 12  11591.346573  15904.560802  17946.256507   -202.786302                    
V 12  -2503.679857  22522.002724 -18276.555038       .054669                    
P 13 -24661.698550   5000.952218   8401.034326    305.705603                    
V 13   9204.722014  -5887.749452  30060.025690       .002868                    
P 14  20835.303836 -14868.628412   6964.489670    -36.144457                    
V 14   8674.337019  -1926.995705 -30783.940155       .050195                    
P 15   7919.308126  13126.669781 -21661.396542   -320.252974                    
V 15 -24240.970388  13179.253656   -798.460132      -.002607                    
P 16   2780.693625 -26236.330780   1528.193037      1.228540                    
V 16   2622.841329   2074.833380  32028.128350      -.040182                    
P 17 -20328.803167  15501.579507   6882.936334     94.161772                    
V 17  -9057.204045   1315.265897 -30223.352813       .033644                    
P 18  15445.347785  -5459.018850 -20588.837210     21.044808                    
V 18   -766.696218  26882.219623  -7982.311927       .027955                    
P 19  -9482.616020 -12380.074288 -21483.711696      5.743829                    
V 19  25018.900174 -11080.226996  -4377.833583      -.018046                    
P 20 -13874.471259 -11792.520535  19229.850476     69.711095                    
V 20   1891.538282 -24711.788957 -13651.618044      -.008606                    
P 21  21993.735606   1197.504617 -14984.125239    -15.837911                    
V 21  14922.406985  12543.508026  21852.815305      -.022914                    
P 22  12199.787084 -18242.718580 -14738.474513    188.408629                    
V 22   1242.915664  19245.131512 -22613.040220      -.007255                    
P 23 -18748.362473  -4533.823072  18361.598990    387.329614                    
V 23  20115.145632 -11710.707650  17320.261619      -.004973                    
P 24  22827.172332  12650.109275  -4018.014858    229.466586                    
V 24   2398.666436   5768.954954  31135.516596       .029642                    
P 25 -24413.157666  -8833.646557  -4760.138100    635.448123                    
V 25  -4592.088189  -5294.198581  31348.797747       .136198                    
P 26  24899.782066  -9901.352568  -1767.364238      7.600996                    
V 26   -843.299667   1905.768727 -32011.477316      -.014352                    
P 27  19199.207073  16486.615865  -7436.721211     92.342646                    
V 27 -10157.393562  -3042.812320 -30162.275476       .032321                    
P 28 -12616.052060  15849.724855 -16566.077021    -25.863337                    
V 28   -366.776354 -22080.203602 -20614.659465       .001372                    
P 29  23895.972585  -2867.301998  11276.795739     66.965772                    
V 29 -11692.170156   8417.317915  27178.833118       .031992                    
P 30  15075.242993   3426.078068  21216.499010    185.824769                    
V 30   -364.125229  27877.078638  -4107.462843       .030499                    
P 31   3936.467033 -14985.026851  21765.497806    -62.725156                    
V 31  23142.500665  14137.507672   5741.494537       .006347                    
P 32  -8761.220916 -19722.210435  16056.014177    175.597806                    
V 32   4088.922294 -19208.114538 -21602.404530      -.072921                    
EOF
